<?xml version="1.0" encoding="UTF-8"?>
<ndm xmlns:xsi="http://www.w3.org/2001/XMLSchema-instance" xsi:noNamespaceSchemaLocation="https://sanaregistry.org/r/ndmxml_unqualified/ndmxml-2.0.0-master-2.0.xsd">
<omm id="CCSDS_OMM_VERS" version="2.0">
<header><CREATION_DATE/><ORIGINATOR/></header><body><segment><metadata><OBJECT_NAME>KUIPER-00008</OBJECT_NAME><OBJECT_ID>2025-088A</OBJECT_ID><CENTER_NAME>EARTH</CENTER_NAME><REF_FRAME>TEME</REF_FRAME><TIME_SYSTEM>UTC</TIME_SYSTEM><MEAN_ELEMENT_THEORY>SGP4</MEAN_ELEMENT_THEORY></metadata><data><meanElements><EPOCH>2025-08-19T09:46:36.627168</EPOCH><MEAN_MOTION>14.98810447</MEAN_MOTION><ECCENTRICITY>.0011285</ECCENTRICITY><INCLINATION>51.8904</INCLINATION><RA_OF_ASC_NODE>289.2040</RA_OF_ASC_NODE><ARG_OF_PERICENTER>136.2391</ARG_OF_PERICENTER><MEAN_ANOMALY>223.9476</MEAN_ANOMALY></meanElements><tleParameters><EPHEMERIS_TYPE>0</EPHEMERIS_TYPE><CLASSIFICATION_TYPE>U</CLASSIFICATION_TYPE><NORAD_CAT_ID>63724</NORAD_CAT_ID><ELEMENT_SET_NO>999</ELEMENT_SET_NO><REV_AT_EPOCH>1771</REV_AT_EPOCH><BSTAR>.24177E-3</BSTAR><MEAN_MOTION_DOT>.2686E-4</MEAN_MOTION_DOT><MEAN_MOTION_DDOT>0</MEAN_MOTION_DDOT></tleParameters></data></segment></body></omm>
<omm id="CCSDS_OMM_VERS" version="2.0">
<header><CREATION_DATE/><ORIGINATOR/></header><body><segment><metadata><OBJECT_NAME>KUIPER-00009</OBJECT_NAME><OBJECT_ID>2025-088B</OBJECT_ID><CENTER_NAME>EARTH</CENTER_NAME><REF_FRAME>TEME</REF_FRAME><TIME_SYSTEM>UTC</TIME_SYSTEM><MEAN_ELEMENT_THEORY>SGP4</MEAN_ELEMENT_THEORY></metadata><data><meanElements><EPOCH>2025-08-20T08:00:01.999872</EPOCH><MEAN_MOTION>14.92976136</MEAN_MOTION><ECCENTRICITY>.0012827</ECCENTRICITY><INCLINATION>51.8924</INCLINATION><RA_OF_ASC_NODE>277.4941</RA_OF_ASC_NODE><ARG_OF_PERICENTER>153.4583</ARG_OF_PERICENTER><MEAN_ANOMALY>275.9838</MEAN_ANOMALY></meanElements><tleParameters><EPHEMERIS_TYPE>0</EPHEMERIS_TYPE><CLASSIFICATION_TYPE>U</CLASSIFICATION_TYPE><NORAD_CAT_ID>63725</NORAD_CAT_ID><ELEMENT_SET_NO>999</ELEMENT_SET_NO><REV_AT_EPOCH>1795</REV_AT_EPOCH><BSTAR>-.44414E-2</BSTAR><MEAN_MOTION_DOT>-.46637E-3</MEAN_MOTION_DOT><MEAN_MOTION_DDOT>0</MEAN_MOTION_DDOT></tleParameters></data></segment></body></omm>
<omm id="CCSDS_OMM_VERS" version="2.0">
<header><CREATION_DATE/><ORIGINATOR/></header><body><segment><metadata><OBJECT_NAME>KUIPER-00010</OBJECT_NAME><OBJECT_ID>2025-088C</OBJECT_ID><CENTER_NAME>EARTH</CENTER_NAME><REF_FRAME>TEME</REF_FRAME><TIME_SYSTEM>UTC</TIME_SYSTEM><MEAN_ELEMENT_THEORY>SGP4</MEAN_ELEMENT_THEORY></metadata><data><meanElements><EPOCH>2025-08-20T06:33:21.899232</EPOCH><MEAN_MOTION>15.36610429</MEAN_MOTION><ECCENTRICITY>.0008998</ECCENTRICITY><INCLINATION>51.8633</INCLINATION><RA_OF_ASC_NODE>271.4695</RA_OF_ASC_NODE><ARG_OF_PERICENTER>154.2546</ARG_OF_PERICENTER><MEAN_ANOMALY>205.8890</MEAN_ANOMALY></meanElements><tleParameters><EPHEMERIS_TYPE>0</EPHEMERIS_TYPE><CLASSIFICATION_TYPE>U</CLASSIFICATION_TYPE><NORAD_CAT_ID>63726</NORAD_CAT_ID><ELEMENT_SET_NO>999</ELEMENT_SET_NO><REV_AT_EPOCH>1765</REV_AT_EPOCH><BSTAR>.17511E-3</BSTAR><MEAN_MOTION_DOT>.5977E-4</MEAN_MOTION_DOT><MEAN_MOTION_DDOT>0</MEAN_MOTION_DDOT></tleParameters></data></segment></body></omm>
<omm id="CCSDS_OMM_VERS" version="2.0">
<header><CREATION_DATE/><ORIGINATOR/></header><body><segment><metadata><OBJECT_NAME>KUIPER-00011</OBJECT_NAME><OBJECT_ID>2025-088D</OBJECT_ID><CENTER_NAME>EARTH</CENTER_NAME><REF_FRAME>TEME</REF_FRAME><TIME_SYSTEM>UTC</TIME_SYSTEM><MEAN_ELEMENT_THEORY>SGP4</MEAN_ELEMENT_THEORY></metadata><data><meanElements><EPOCH>2025-08-20T08:00:01.999872</EPOCH><MEAN_MOTION>15.33547330</MEAN_MOTION><ECCENTRICITY>.0009263</ECCENTRICITY><INCLINATION>51.8591</INCLINATION><RA_OF_ASC_NODE>271.5204</RA_OF_ASC_NODE><ARG_OF_PERICENTER>157.3489</ARG_OF_PERICENTER><MEAN_ANOMALY>326.8420</MEAN_ANOMALY></meanElements><tleParameters><EPHEMERIS_TYPE>0</EPHEMERIS_TYPE><CLASSIFICATION_TYPE>U</CLASSIFICATION_TYPE><NORAD_CAT_ID>63727</NORAD_CAT_ID><ELEMENT_SET_NO>999</ELEMENT_SET_NO><REV_AT_EPOCH>1779</REV_AT_EPOCH><BSTAR>-.26983E-1</BSTAR><MEAN_MOTION_DOT>-.823786E-2</MEAN_MOTION_DOT><MEAN_MOTION_DDOT>0</MEAN_MOTION_DDOT></tleParameters></data></segment></body></omm>
<omm id="CCSDS_OMM_VERS" version="2.0">
<header><CREATION_DATE/><ORIGINATOR/></header><body><segment><metadata><OBJECT_NAME>KUIPER-00012</OBJECT_NAME><OBJECT_ID>2025-088E</OBJECT_ID><CENTER_NAME>EARTH</CENTER_NAME><REF_FRAME>TEME</REF_FRAME><TIME_SYSTEM>UTC</TIME_SYSTEM><MEAN_ELEMENT_THEORY>SGP4</MEAN_ELEMENT_THEORY></metadata><data><meanElements><EPOCH>2025-08-20T07:17:38.687136</EPOCH><MEAN_MOTION>15.36375910</MEAN_MOTION><ECCENTRICITY>.0010009</ECCENTRICITY><INCLINATION>51.8560</INCLINATION><RA_OF_ASC_NODE>271.5791</RA_OF_ASC_NODE><ARG_OF_PERICENTER>163.9810</ARG_OF_PERICENTER><MEAN_ANOMALY>196.1494</MEAN_ANOMALY></meanElements><tleParameters><EPHEMERIS_TYPE>0</EPHEMERIS_TYPE><CLASSIFICATION_TYPE>U</CLASSIFICATION_TYPE><NORAD_CAT_ID>63728</NORAD_CAT_ID><ELEMENT_SET_NO>999</ELEMENT_SET_NO><REV_AT_EPOCH>1774</REV_AT_EPOCH><BSTAR>.43284E-3</BSTAR><MEAN_MOTION_DOT>.15258E-3</MEAN_MOTION_DOT><MEAN_MOTION_DDOT>0</MEAN_MOTION_DDOT></tleParameters></data></segment></body></omm>
<omm id="CCSDS_OMM_VERS" version="2.0">
<header><CREATION_DATE/><ORIGINATOR/></header><body><segment><metadata><OBJECT_NAME>KUIPER-00013</OBJECT_NAME><OBJECT_ID>2025-088F</OBJECT_ID><CENTER_NAME>EARTH</CENTER_NAME><REF_FRAME>TEME</REF_FRAME><TIME_SYSTEM>UTC</TIME_SYSTEM><MEAN_ELEMENT_THEORY>SGP4</MEAN_ELEMENT_THEORY></metadata><data><meanElements><EPOCH>2025-08-20T08:00:01.999872</EPOCH><MEAN_MOTION>14.89403810</MEAN_MOTION><ECCENTRICITY>.000885</ECCENTRICITY><INCLINATION>51.9101</INCLINATION><RA_OF_ASC_NODE>278.5783</RA_OF_ASC_NODE><ARG_OF_PERICENTER>95.9560</ARG_OF_PERICENTER><MEAN_ANOMALY>168.2005</MEAN_ANOMALY></meanElements><tleParameters><EPHEMERIS_TYPE>0</EPHEMERIS_TYPE><CLASSIFICATION_TYPE>U</CLASSIFICATION_TYPE><NORAD_CAT_ID>63729</NORAD_CAT_ID><ELEMENT_SET_NO>999</ELEMENT_SET_NO><REV_AT_EPOCH>1774</REV_AT_EPOCH><BSTAR>-.13017E+0</BSTAR><MEAN_MOTION_DOT>-.1161735E-1</MEAN_MOTION_DOT><MEAN_MOTION_DDOT>0</MEAN_MOTION_DDOT></tleParameters></data></segment></body></omm>
<omm id="CCSDS_OMM_VERS" version="2.0">
<header><CREATION_DATE/><ORIGINATOR/></header><body><segment><metadata><OBJECT_NAME>KUIPER-00014</OBJECT_NAME><OBJECT_ID>2025-088G</OBJECT_ID><CENTER_NAME>EARTH</CENTER_NAME><REF_FRAME>TEME</REF_FRAME><TIME_SYSTEM>UTC</TIME_SYSTEM><MEAN_ELEMENT_THEORY>SGP4</MEAN_ELEMENT_THEORY></metadata><data><meanElements><EPOCH>2025-08-20T08:00:01.999872</EPOCH><MEAN_MOTION>14.89016191</MEAN_MOTION><ECCENTRICITY>.0008677</ECCENTRICITY><INCLINATION>51.8941</INCLINATION><RA_OF_ASC_NODE>279.6182</RA_OF_ASC_NODE><ARG_OF_PERICENTER>150.3795</ARG_OF_PERICENTER><MEAN_ANOMALY>60.1381</MEAN_ANOMALY></meanElements><tleParameters><EPHEMERIS_TYPE>0</EPHEMERIS_TYPE><CLASSIFICATION_TYPE>U</CLASSIFICATION_TYPE><NORAD_CAT_ID>63730</NORAD_CAT_ID><ELEMENT_SET_NO>999</ELEMENT_SET_NO><REV_AT_EPOCH>1754</REV_AT_EPOCH><BSTAR>-.4511E-2</BSTAR><MEAN_MOTION_DOT>-.42888E-3</MEAN_MOTION_DOT><MEAN_MOTION_DDOT>0</MEAN_MOTION_DDOT></tleParameters></data></segment></body></omm>
<omm id="CCSDS_OMM_VERS" version="2.0">
<header><CREATION_DATE/><ORIGINATOR/></header><body><segment><metadata><OBJECT_NAME>KUIPER-00015</OBJECT_NAME><OBJECT_ID>2025-088H</OBJECT_ID><CENTER_NAME>EARTH</CENTER_NAME><REF_FRAME>TEME</REF_FRAME><TIME_SYSTEM>UTC</TIME_SYSTEM><MEAN_ELEMENT_THEORY>SGP4</MEAN_ELEMENT_THEORY></metadata><data><meanElements><EPOCH>2025-08-20T03:57:13.828032</EPOCH><MEAN_MOTION>14.81166628</MEAN_MOTION><ECCENTRICITY>.0011098</ECCENTRICITY><INCLINATION>51.8999</INCLINATION><RA_OF_ASC_NODE>292.4721</RA_OF_ASC_NODE><ARG_OF_PERICENTER>131.8546</ARG_OF_PERICENTER><MEAN_ANOMALY>228.3365</MEAN_ANOMALY></meanElements><tleParameters><EPHEMERIS_TYPE>0</EPHEMERIS_TYPE><CLASSIFICATION_TYPE>U</CLASSIFICATION_TYPE><NORAD_CAT_ID>63731</NORAD_CAT_ID><ELEMENT_SET_NO>999</ELEMENT_SET_NO><REV_AT_EPOCH>1781</REV_AT_EPOCH><BSTAR>.67464E-4</BSTAR><MEAN_MOTION_DOT>.304E-5</MEAN_MOTION_DOT><MEAN_MOTION_DDOT>0</MEAN_MOTION_DDOT></tleParameters></data></segment></body></omm>

</ndm>
