KUIPER-00008            
1 63724U 25088A   25231.40736837  .00002686  00000+0  24177-3 0  9991
2 63724  51.8904 289.2040 0011285 136.2391 223.9476 14.98810447 17713
KUIPER-00009            
1 63725U 25088B   25232.33335648 -.00046637  00000+0 -44414-2 0  9991
2 63725  51.8924 277.4941 0012827 153.4583 275.9838 14.92976136 17959
KUIPER-00010            
1 63726U 25088C   25232.27317013  .00005977  00000+0  17511-3 0  9990
2 63726  51.8633 271.4695 0008998 154.2546 205.8890 15.36610429 17655
KUIPER-00011            
1 63727U 25088D   25232.33335648 -.00823786  00000+0 -26983-1 0  9991
2 63727  51.8591 271.5204 0009263 157.3489 326.8420 15.33547330 17797
KUIPER-00012            
1 63728U 25088E   25232.30391999  .00015258  00000+0  43284-3 0  9990
2 63728  51.8560 271.5791 0010009 163.9810 196.1494 15.36375910 17746
KUIPER-00013            
1 63729U 25088F   25232.33335648 -.01161735  00000+0 -13017+0 0  9995
2 63729  51.9101 278.5783 0008850  95.9560 168.2005 14.89403810 17740
KUIPER-00014            
1 63730U 25088G   25232.33335648 -.00042888  00000+0 -45110-2 0  9995
2 63730  51.8941 279.6182 0008677 150.3795  60.1381 14.89016191 17548
KUIPER-00015            
1 63731U 25088H   25232.16474338  .00000304  00000+0  67464-4 0  9990
2 63731  51.8999 292.4721 0011098 131.8546 228.3365 14.81166628 17816
